NORAD_CAT_ID,OBJECT_NAME,OBJECT_TYPE,EPOCH,MEAN_MOTION,ECCENTRICITY,INCLINATION,RA_OF_ASC_NODE,ARG_OF_PERICENTER,MEAN_ANOMALY,BSTAR,MEAN_MOTION_DOT,MEAN_MOTION_DDOT,TLE_LINE0,TLE_LINE1,TLE_LINE2,SEMIMAJOR_AXIS,PERIOD,APOGEE,PERIGEE,DECAYED
51895.0,STARLINK-3594,PAYLOAD,2022-03-16 14:00:01,15.73146176,0.0001484,53.2189,79.895,44.023,125.3296,0.00094799,0.0013425999999999,0.0,0 STARLINK-3594,1 51895U 22022AV  22075.58334491  .00134260  00000-0  94799-3 0  9996,2 51895  53.2189  79.8950 0001484  44.0230 125.3296 15.73146176  2692,6728.049,91.536,350.912,348.915,0.0
51895.0,STARLINK-3594,PAYLOAD,2022-03-16 20:00:01,15.73206504,0.0001395,53.2191,78.6563,53.4111,92.6024,0.00083983,0.0011896,0.0,0 STARLINK-3594,1 51895U 22022AV  22075.83334491  .00118960  00000-0  83983-3 0  9996,2 51895  53.2191  78.6563 0001395  53.4111  92.6024 15.73206504  2737,6727.877,91.533,350.68,348.80300000000005,0.0
51895.0,STARLINK-3594,PAYLOAD,2022-03-17 06:00:00,15.73286579,0.0001437,53.219,76.5957,46.0412,301.2184,-0.00081834,-0.00114345,0.0,0 STARLINK-3594,1 51895U 22022AV  22076.25001157 -.00114345  00000-0 -81834-3 0  9991,2 51895  53.2190  76.5957 0001437  46.0412 301.2184 15.73286579  3365,6727.648,91.528,350.48,348.547,0.0
51895.0,STARLINK-3594,PAYLOAD,2022-03-17 14:00:01,15.73209475,0.0001321,53.2184,74.9459,39.2476,36.9954,0.00015805,0.00021627,0.0,0 STARLINK-3594,1 51895U 22022AV  22076.58334491  .00021627  00000-0  15805-3 0  9990,2 51895  53.2184  74.9459 0001321  39.2476  36.9954 15.73209475  3416,6727.868,91.533,350.622,348.844,0.0
51895.0,STARLINK-3594,PAYLOAD,2022-03-17 22:00:00,15.73223439,0.0001138,53.2186,73.2948,52.2009,112.9909,0.00041914,0.00058674,0.0,0 STARLINK-3594,1 51895U 22022AV  22076.91667824  .00058674  00000-0  41914-3 0  9998,2 51895  53.2186  73.2948 0001138  52.2009 112.9909 15.73223439  2900,6727.828,91.532,350.459,348.92800000000005,0.0
51895.0,STARLINK-3594,PAYLOAD,2022-03-18 14:00:01,15.73202028,0.0001305,53.2191,69.9973,44.0179,299.1241,1.2917e-05,1.193e-05,0.0,0 STARLINK-3594,1 51895U 22022AV  22077.58334491  .00001193  00000-0  12917-4 0  9999,2 51895  53.2191  69.9973 0001305  44.0179 299.1241 15.73202028  3571,6727.889,91.533,350.63199999999995,348.876,0.0
51895.0,STARLINK-3594,PAYLOAD,2022-03-18 22:00:00,15.73217412,0.0001277,53.2195,68.3461,54.0376,18.0326,0.00015618,0.00021371,0.0,0 STARLINK-3594,1 51895U 22022AV  22077.91667824  .00021371  00000-0  15618-3 0  9995,2 51895  53.2195  68.3461 0001277  54.0376  18.0326 15.73217412  3067,6727.846,91.532,350.57,348.851,0.0
51895.0,STARLINK-3594,PAYLOAD,2022-03-19 14:00:01,15.73207208,9.88e-05,53.2172,65.0377,54.4798,195.2931,-4.1995e-05,-6.51e-05,0.0,0 STARLINK-3594,1 51895U 22022AV  22078.58334491 -.00006510  00000-0 -41995-4 0  9998,2 51895  53.2172  65.0377 0000988  54.4798 195.2931 15.73207208  3738,6727.875,91.533,350.404,349.075,0.0
51895.0,STARLINK-3594,PAYLOAD,2022-03-19 22:00:01,15.73224126,0.0001153,53.2194,63.3976,56.8527,282.1535,4.6473e-05,5.913e-05,0.0,0 STARLINK-3594,1 51895U 22022AV  22078.91668981  .00005913  00000-0  46473-4 0  9999,2 51895  53.2194  63.3976 0001153  56.8527 282.1535 15.73224126  3788,6727.826,91.532,350.467,348.916,0.0
51895.0,STARLINK-3594,PAYLOAD,2022-03-20 12:00:00,15.73207019,0.000148,53.2183,60.5132,51.5568,353.0548,8.8614e-05,0.00011837,0.0,0 STARLINK-3594,1 51895U 22022AV  22079.50001157  .00011837  00000-0  88614-4 0  9996,2 51895  53.2183  60.5132 0001480  51.5568 353.0548 15.73207019  3873,6727.875,91.533,350.736,348.744,0.0
51895.0,STARLINK-3594,PAYLOAD,2022-03-20 14:00:01,15.73228878,0.0001438,53.2184,60.1003,55.1992,101.6425,-0.00027958,-0.00039721,0.0,0 STARLINK-3594,1 51895U 22022AV  22079.58334491 -.00039721  00000-0 -27958-3 0  9991,2 51895  53.2184  60.1003 0001438  55.1992 101.6425 15.73228878  3328,6727.813,91.532,350.645,348.71,0.0
51895.0,STARLINK-3594,PAYLOAD,2022-03-20 22:00:01,15.73181872,0.0001284,53.2181,58.4493,61.3844,184.4894,0.00038944,0.00054347,0.0,0 STARLINK-3594,1 51895U 22022AV  22079.91668981  .00054347  00000-0  38944-3 0  9998,2 51895  53.2181  58.4493 0001284  61.3844 184.4894 15.73181872  3389,6727.946999999999,91.534,350.676,348.9480000000001,0.0
51895.0,STARLINK-3594,PAYLOAD,2022-03-21 14:00:01,15.73221817,0.0001245,53.2177,55.1518,50.2268,13.421,-0.00067901,-0.00094934,0.0,0 STARLINK-3594,1 51895U 22022AV  22080.58334491 -.00094934  00000-0 -67901-3 0  9992,2 51895  53.2177  55.1518 0001245  50.2268  13.4210 15.73221817  4041,6727.833000000001,91.532,350.536,348.86,0.0
51895.0,STARLINK-3594,PAYLOAD,2022-03-21 20:00:01,15.73120241,0.0001183,53.2179,53.9135,62.5848,337.7643,0.00064025,0.00089892,0.0,0 STARLINK-3594,1 51895U 22022AV  22080.83334491  .00089892  00000-0  64025-3 0  9999,2 51895  53.2179  53.9135 0001183  62.5848 337.7643 15.73120241  4080,6728.123000000001,91.538,350.784,349.19199999999995,0.0
51895.0,STARLINK-3594,PAYLOAD,2022-03-21 22:00:00,15.73152984,0.0001209,53.2181,53.5014,65.9363,86.6179,0.00034063,0.00047358,0.0,0 STARLINK-3594,1 51895U 22022AV  22080.91667824  .00047358  00000-0  34063-3 0  9997,2 51895  53.2181  53.5014 0001209  65.9363  86.6179 15.73152984  3546,6728.029,91.536,350.708,349.081,0.0
51895.0,STARLINK-3594,PAYLOAD,2022-03-22 04:00:00,15.73196476,0.000122,53.218,52.2662,53.4841,75.7335,-0.00060887,-0.00085196,0.0,0 STARLINK-3594,1 51895U 22022AV  22081.16667824 -.00085196  00000-0 -60887-3 0  9992,2 51895  53.2180  52.2662 0001220  53.4841  75.7335 15.73196476  4139,6727.905,91.533,350.591,348.949,0.0
51895.0,STARLINK-3594,PAYLOAD,2022-03-22 14:00:01,15.73171622,0.0001074,53.2184,50.2039,50.5327,279.7912,0.00011416,0.00015412,0.0,0 STARLINK-3594,1 51895U 22022AV  22081.58334491  .00015412  00000-0  11416-3 0  9995,2 51895  53.2184  50.2039 0001074  50.5327 279.7912 15.73171622  4204,6727.976,91.535,350.564,349.11800000000005,0.0
51895.0,STARLINK-3594,PAYLOAD,2022-03-22 22:00:01,15.7319353,0.0001081,53.2188,48.5534,60.9182,358.369,0.0004631,0.00064858,0.0,0 STARLINK-3594,1 51895U 22022AV  22081.91668981  .00064858  00000-0  46310-3 0  9995,2 51895  53.2188  48.5534 0001081  60.9182 358.3690 15.73193530  3703,6727.9140000000025,91.534,350.506,349.051,0.0
51895.0,STARLINK-3594,PAYLOAD,2022-03-23 08:00:01,15.73242811,0.000129,53.2185,46.4925,51.1013,209.3113,0.00011193,0.00015145,0.0,0 STARLINK-3594,1 51895U 22022AV  22082.33334491  .00015145  00000-0  11193-3 0  9994,2 51895  53.2185  46.4925 0001290  51.1013 209.3113 15.73242811  4329,6727.773,91.531,350.506,348.77,0.0
51895.0,STARLINK-3594,PAYLOAD,2022-03-23 14:00:01,15.73261858,0.0001242,53.2182,45.2555,59.2221,177.9276,-0.00035943,-0.00050892,0.0,0 STARLINK-3594,1 51895U 22022AV  22082.58334491 -.00050892  00000-0 -35943-3 0  9990,2 51895  53.2182  45.2555 0001242  59.2221 177.9276 15.73261858  3713,6727.719,91.53,350.4190000000001,348.74800000000016,0.0
51895.0,STARLINK-3594,PAYLOAD,2022-03-23 20:00:01,15.73229332,0.0001146,53.2183,44.0174,68.8613,145.02100000000004,-9.4952e-05,-0.0001394,0.0,0 STARLINK-3594,1 51895U 22022AV  22082.83334491 -.00013940  00000-0 -94952-4 0  9997,2 51895  53.2183  44.0174 0001146  68.8613 145.0210 15.73229332  4404,6727.812,91.531,350.4480000000001,348.906,0.0
51895.0,STARLINK-3594,PAYLOAD,2022-03-23 22:00:00,15.73223048,0.0001138,53.2185,43.6054,69.7728,256.3501,1.0618e-05,8.72e-06,0.0,0 STARLINK-3594,1 51895U 22022AV  22082.91667824  .00000872  00000-0  10618-4 0  9990,2 51895  53.2185  43.6054 0001138  69.7728 256.3501 15.73223048  3716,6727.829000000002,91.532,350.46,348.92900000000014,0.0
51895.0,STARLINK-3594,PAYLOAD,2022-03-24 14:00:01,15.73223025,0.0001215,53.2187,40.307,64.5211,79.5119,-0.0001169,-0.00017009,0.0,0 STARLINK-3594,1 51895U 22022AV  22083.58334491 -.00017009  00000-0 -11690-3 0  9997,2 51895  53.2187  40.3070 0001215  64.5211  79.5119 15.73223025  3698,6727.83,91.532,350.51199999999994,348.87699999999984,0.0
51895.0,STARLINK-3594,PAYLOAD,2022-03-24 22:00:00,15.73202139,0.0001095,53.219,38.6569,70.3884,162.5883,6.1838e-05,8.068e-05,0.0,0 STARLINK-3594,1 51895U 22022AV  22083.91667824  .00008068  00000-0  61838-4 0  9996,2 51895  53.2190  38.6569 0001095  70.3884 162.5883 15.73202139  4574,6727.889,91.533,350.491,349.017,0.0
51895.0,STARLINK-3594,PAYLOAD,2022-03-25 12:00:00,15.73192675,9.7e-05,53.2183,35.7714,54.0323,244.5484,0.00012194,0.00016522,0.0,0 STARLINK-3594,1 51895U 22022AV  22084.50001157  .00016522  00000-0  12194-3 0  9997,2 51895  53.2183  35.7714 0000970  54.0323 244.5484 15.73192675  4665,6727.916,91.534,350.434,349.12800000000016,0.0
51895.0,STARLINK-3594,PAYLOAD,2022-03-25 14:00:01,15.73198029,9.28e-05,53.2184,35.3586,59.9945,350.8154,0.00011294,0.00015258,0.0,0 STARLINK-3594,1 51895U 22022AV  22084.58334491  .00015258  00000-0  11294-3 0  9990,2 51895  53.2184  35.3586 0000928  59.9945 350.8154 15.73198029  3692,6727.901,91.533,350.39,349.141,0.0
51895.0,STARLINK-3594,PAYLOAD,2022-03-25 22:00:01,15.7321114,0.0001069,53.2184,33.7083,69.898,69.9117,-8.759299999999999e-05,-0.00012899,0.0,0 STARLINK-3594,1 51895U 22022AV  22084.91668981 -.00012899  00000-0 -87593-4 0  9997,2 51895  53.2184  33.7083 0001069  69.8980  69.9117 15.73211140  3745,6727.863,91.533,350.4480000000001,349.009,0.0
51895.0,STARLINK-3594,PAYLOAD,2022-03-26 14:00:01,15.73216372,0.0001200999999999,53.2187,30.41,71.5415,246.0876,-0.00014988,-0.00021615,0.0,0 STARLINK-3594,1 51895U 22022AV  22085.58334491 -.00021615  00000-0 -14988-3 0  9990,2 51895  53.2187  30.4100 0001201  71.5415 246.0876 15.73216372  3688,6727.848000000001,91.532,350.522,348.905,0.0
51895.0,STARLINK-3594,PAYLOAD,2022-03-26 20:00:01,15.73208875,0.0001176,53.219,29.1721,77.1619,217.1674,-0.00013906,-0.00020096,0.0,0 STARLINK-3594,1 51895U 22022AV  22085.83334491 -.00020096  00000-0 -13906-3 0  9999,2 51895  53.2190  29.1721 0001176  77.1619 217.1674 15.73208875  4871,6727.87,91.533,350.526,348.944,0.0
